ONEWEB-0036             
1 45144U 20008P   22173.47168891  .00000064  00000+0  14590-3 0  9998
2 45144  87.8829 325.6441 0001826  87.5597 272.5740 13.10376916118582
ONEWEB-0038             
1 45145U 20008Q   22173.33757826 -.00000427  00000+0 -12408-2 0  9996
2 45145  87.8859 310.4491 0000915 116.8647 243.2574 13.11418825119514
ONEWEB-0039             
1 45146U 20008R   22173.68206499 -.00000629  00000+0 -18389-2 0  9998
2 45146  87.8829 325.6425 0001190  88.8822 271.2442 13.10373087118328
ONEWEB-0040             
1 45147U 20008S   22173.44675149 -.00000564  00000+0 -16523-2 0  9991
2 45147  87.8826 325.7371 0001741  88.1393 271.9934 13.10370467117214
ONEWEB-0043             
1 45149U 20008U   22173.37195257 -.00000622  00000+0 -18175-2 0  9992
2 45149  87.8829 325.7062 0001847  82.0287 278.1050 13.10367156117521
ONEWEB-0044             
1 45150U 20008V   22173.47636641  .00000359  00000+0  99117-3 0  9993
2 45150  87.8833 325.6880 0001412  86.9748 273.1541 13.10376344118607
ONEWEB-0045             
1 45151U 20008W   22173.34429848 -.00000275  00000+0 -81227-3 0  9991
2 45151  87.8814 310.4160 0001707 106.0900 254.0416 13.11419066119599
ONEWEB-0047             
1 45152U 20008X   22173.46855928 -.00000416  00000+0 -12282-2 0  9998
2 45152  87.8836 325.6863 0001676  89.3565 270.7754 13.10373799118340
ONEWEB-0048             
1 45153U 20008Y   22173.46389448 -.00000262  00000+0 -78559-3 0  9997
2 45153  87.8837 325.6874 0001779  83.9283 276.2047 13.10376866117168
ONEWEB-0049             
1 45154U 20008Z   22173.46546641 -.00000169  00000+0 -51944-3 0  9993
2 45154  87.8826 325.6590 0001883  83.9870 276.1472 13.10376335117386
ONEWEB-0051             
1 45155U 20008AA  22173.34207223 -.00000259  00000+0 -76772-3 0  9997
2 45155  87.8905 310.3435 0001777 102.8164 257.3162 13.11418773120276
ONEWEB-0052             
1 45156U 20008AB  22173.46234758 -.00000270  00000+0 -80927-3 0  9994
2 45156  87.8821 325.6449 0002184  66.0269 294.1086 13.10376250117292
ONEWEB-0053             
1 45157U 20008AC  22173.67426731 -.00000463  00000+0 -13623-2 0  9994
2 45157  87.8830 325.6588 0001699  88.6669 271.4653 13.10367372118059
ONEWEB-0054             
1 45158U 20008AD  22173.47948442  .00000466  00000+0  12973-2 0  9999
2 45158  87.8830 325.6910 0001829 101.4499 258.6834 13.10375171118143
ONEWEB-0056             
1 45159U 20008AE  22173.46076643 -.00000372  00000+0 -11015-2 0  9998
2 45159  87.8825 325.6892 0001723  88.9255 271.2070 13.10370626117534
ONEWEB-0057             
1 45160U 20008AF  22173.46702295 -.00000071  00000+0 -24063-3 0  9993
2 45160  87.8835 325.6685 0001641  90.7408 269.3908 13.10377138117709
ONEWEB-0058             
1 45161U 20008AG  22173.45454440 -.00000499  00000+0 -14658-2 0  9991
2 45161  87.8833 325.7027 0001543  95.3754 264.7549 13.10375581117772
ONEWEB-0059             
1 45162U 20008AH  22173.37507535 -.00000540  00000+0 -15828-2 0  9994
2 45162  87.8831 325.7095 0001609  98.6582 261.4727 13.10372576117665
ONEWEB-0062             
1 45163U 20008AJ  22173.47792761  .00000471  00000+0  13119-2 0  9995
2 45163  87.8833 325.6802 0001850  88.6241 271.5098 13.10375804118292
ONEWEB-0065             
1 45164U 20008AK  22173.45609955 -.00000515  00000+0 -15113-2 0  9993
2 45164  87.8855 325.6293 0001734  90.8968 269.2358 13.10376701117236
STARLINK-1138           
1 45178U 20012A   22173.81558740  .00001296  00000+0  10587-3 0  9994
2 45178  53.0569  13.3865 0001514  79.4661 280.6498 15.06407509129821
STARLINK-1143           
1 45179U 20012B   22173.28755803  .00001525  00000+0  12124-3 0  9999
2 45179  53.0570  15.7263 0001564  65.0457 295.0694 15.06396291130398
STARLINK-1192           
1 45180U 20012C   22173.28364332  .00015149  00000+0  94620-3 0  9992
2 45180  53.0526  14.3879 0002247  81.4825 278.6420 15.09667703130418
STARLINK-1200           
1 45181U 20012D   22173.27375687  .00000836  00000+0  74994-4 0  9997
2 45181  53.0562  15.8185 0001497  72.6040 287.5113 15.06398547130391
STARLINK-1201           
1 45182U 20012E   22173.49307970  .00002235  00000+0  16893-3 0  9990
2 45182  53.0544 354.8240 0001461  71.4333 288.6814 15.06389219130052
STARLINK-1202           
1 45183U 20012F   22172.97888358  .00000377  00000+0  44186-4 0  9999
2 45183  53.0569  17.1355 0001452  72.0592 288.0555 15.06394281130354
STARLINK-1205           
1 45184U 20012G   22173.76583530 -.00000164  00000+0  79098-5 0  9998
2 45184  53.0559 353.6044 0001273  73.1684 286.9444 15.06394586130073
STARLINK-1216           
1 45185U 20012H   22173.83401686  .00000753  00000+0  69410-4 0  9997
2 45185  53.0555  13.2931 0001416  75.3984 284.7162 15.06404040129832
STARLINK-1224           
1 45186U 20012J   22173.71606048 -.00011965  00000+0 -78470-3 0  9998
2 45186  53.0559  13.8245 0001863  52.9483 307.1676 15.06446673129818
STARLINK-1225           
1 45187U 20012K   22173.71976304  .00000643  00000+0  62087-4 0  9991
2 45187  53.0558  13.8141 0001569  68.0692 292.0463 15.06387452129563
STARLINK-1228           
1 45188U 20012L   22173.81558563  .00001182  00000+0  98200-4 0  9991
2 45188  53.0541 333.3861 0001293  66.1352 293.9772 15.06401411130041
STARLINK-1230           
1 45189U 20012M   22173.72344638 -.00000041  00000+0  16173-4 0  9991
2 45189  53.0561  13.7974 0001569  75.3818 284.7345 15.06389969129521
STARLINK-1234           
1 45190U 20012N   22173.80822407  .00000496  00000+0  52189-4 0  9997
2 45190  53.0564 333.4180 0001795  48.9636 311.1508 15.06388873130051
STARLINK-1236           
1 45191U 20012P   22173.79716257  .00000235  00000+0  34681-4 0  9999
2 45191  53.0545  13.4648 0001371  74.0050 286.1090 15.06395638129822
STARLINK-1237           
1 45192U 20012Q   22172.97519783 -.00000783  00000+0 -33665-4 0  9995
2 45192  53.0572  17.1360 0001423  67.4242 292.6898 15.06397892130354
STARLINK-1239           
1 45193U 20012R   22173.29587261  .00001484  00000+0  11854-3 0  9990
2 45193  53.0561  15.7078 0001652  64.7907 295.3254 15.06395770130343
STARLINK-1240           
1 45194U 20012S   22173.29955663  .00001125  00000+0  94433-4 0  9993
2 45194  53.0577  15.7025 0001299  65.2543 294.8581 15.06392904130299
STARLINK-1241           
1 45195U 20012T   22173.27223088  .00013414  00000+0  82429-3 0  9996
2 45195  53.0524  14.1897 0002662  85.0967 275.0328 15.10361132130415
STARLINK-1244           
1 45196U 20012U   22173.28113093  .00001632  00000+0  12843-3 0  9994
2 45196  53.0575  15.7786 0001406  77.6023 282.5123 15.06391527130446
STARLINK-1269           
1 45197U 20012V   22173.80084918  .00000115  00000+0  26608-4 0  9996
2 45197  53.0570  13.4476 0001658  62.5994 297.5163 15.06397394129561
STARLINK-1154           
1 45198U 20012W   22173.79162647  .00000017  00000+0  20071-4 0  9990
2 45198  53.0569 353.4732 0001519  68.1275 291.9876 15.06403556129817
STARLINK-1197           
1 45199U 20012X   22173.79532686  .00000065  00000+0  23273-4 0  9995
2 45199  53.0573 353.4569 0001323  84.0392 276.0748 15.06387094129811
STARLINK-1199           
1 45201U 20012Z   22173.47096396  .00000242  00000+0  35180-4 0  9994
2 45201  53.0544 354.9116 0001478  76.6878 283.4276 15.06386334130708
STARLINK-1203           
1 45202U 20012AA  22173.51282143  .00019114  00000+0  10080-2 0  9995
2 45202  52.9795 359.9085 0001894 130.1391 229.9767 15.15596546130611
STARLINK-1206           
1 45204U 20012AC  22173.49675810 -.00000637  00000+0 -23869-4 0  9994
2 45204  53.0563 354.8087 0001372  62.9273 297.1855 15.06396009129778
STARLINK-1208           
1 45205U 20012AD  22173.78425478  .00000149  00000+0  28889-4 0  9993
2 45205  53.0564 353.5019 0001440  73.2333 286.8814 15.06396600129822
STARLINK-1209           
1 45206U 20012AE  22173.48017455 -.00000219  00000+0  41963-5 0  9991
2 45206  53.0554 334.8747 0001504  71.0718 289.0434 15.06390669130033
STARLINK-1210           
1 45207U 20012AF  22173.47464287  .00000016  00000+0  19950-4 0  9994
2 45207  53.0583 354.8979 0001610  72.2409 287.8756 15.06394183130705
STARLINK-1211           
1 45208U 20012AG  22173.76831159 -.00001248  00000+0 -66523-4 0  9991
2 45208  53.0016 353.5904 0001436  83.6573 276.4578 15.05583147129764
STARLINK-1218           
1 45209U 20012AH  22173.39214187  .00000177  00000+0  51573-5 0  9995
2 45209  53.0441 179.5716 0008310 299.0987  60.9200 15.76726924133093
STARLINK-1219           
1 45210U 20012AJ  22173.47832227  .00001551  00000+0  12298-3 0  9993
2 45210  53.0586 354.9037 0001600  68.8779 291.2381 15.06397311130594
STARLINK-1231           
1 45212U 20012AL  22173.51150065  .00000054  00000+0  22504-4 0  9992
2 45212  53.0569 354.7470 0001564  66.5678 293.5475 15.06395327129770
STARLINK-1232           
1 45213U 20012AM  22173.39757637  .00009145  00000+0  23715-3 0  9991
2 45213  53.0596 323.1771 0001951 207.8738 152.2162 15.39771626131157
STARLINK-1233           
1 45214U 20012AN  22173.48475222  .00000147  00000+0  28794-4 0  9995
2 45214  53.0556 354.8504 0001584  69.6876 290.4283 15.06400190130706
STARLINK-1245           
1 45215U 20012AP  22173.74741025 -.00000023  00000+0  17336-4 0  9996
2 45215  53.0566 353.6810 0001366  74.4849 285.6291 15.06388259129802
STARLINK-1271           
1 45217U 20012AR  22172.92543768 -.00000894  00000+0 -41160-4 0  9990
2 45217  53.0564 357.3778 0001367  67.9407 292.1727 15.06390495130628
STARLINK-1187           
1 45219U 20012AT  22173.78610810 -.00001514  00000+0 -82775-4 0  9997
2 45219  53.0559 333.5119 0001408  73.2454 286.8689 15.06389526130087
STARLINK-1189           
1 45221U 20012AV  22173.19266672  .00001653  00000+0  12985-3 0  9995
2 45221  53.0534 336.1848 0001530  72.0757 288.0399 15.06397193130946
STARLINK-1191           
1 45222U 20012AW  22173.73081596 -.00000236  00000+0  30579-5 0  9994
2 45222  53.0542 333.7453 0001632  64.8872 295.2286 15.06391490130085
